start=new Date('2022-11-03T00:00:00.000Z').valueOf();
sats=[{"FILE":"3643025","ELEMENT_SET_NO":"999","REV_AT_EPOCH":"130","RA_OF_ASC_NODE":"60.2260","MEAN_MOTION_DOT":"-0.00033851","MEAN_MOTION":"15.73248915","PERIOD":"91.530","DECAY_DATE":null,"TLE_LINE1":"1 53911U 22119AB  22306.91667824 -.00033851  00000-0 -23720-3 0  9999","BSTAR":"-0.00023720000000","ECCENTRICITY":"0.00022330","SITE":"AFETR","GP_ID":"216793431","COUNTRY_CODE":"US","APOAPSIS":"351.123","TIME_SYSTEM":"UTC","LAUNCH_DATE":"2022-09-24","TLE_LINE2":"2 53911  53.2154  60.2260 0002233  24.5195 223.5179 15.73248915  1301","ARG_OF_PERICENTER":"24.5195","EPOCH":"2022-11-02T22:00:00.999936","OBJECT_ID":"2022-119AB","MEAN_ANOMALY":"223.5179","OBJECT_TYPE":"PAYLOAD","SEMIMAJOR_AXIS":"6727.756","MEAN_ELEMENT_THEORY":"SGP4","EPHEMERIS_TYPE":"0","RCS_SIZE":"LARGE","PERIAPSIS":"348.118","OBJECT_NAME":"STARLINK-5048","NORAD_CAT_ID":"53911","INCLINATION":"53.2154","MEAN_MOTION_DDOT":"0.0000000000000","CLASSIFICATION_TYPE":"U","CENTER_NAME":"EARTH","REF_FRAME":"TEME"},{"OBJECT_NAME":"STARLINK-5059","NORAD_CAT_ID":"53912","EPHEMERIS_TYPE":"0","MEAN_ELEMENT_THEORY":"SGP4","RCS_SIZE":"LARGE","PERIAPSIS":"347.856","REF_FRAME":"TEME","CENTER_NAME":"EARTH","CLASSIFICATION_TYPE":"U","INCLINATION":"53.2160","MEAN_MOTION_DDOT":"0.0000000000000","TIME_SYSTEM":"UTC","LAUNCH_DATE":"2022-09-24","TLE_LINE2":"2 53912  53.2160  60.2249 0002829  13.9024 236.4930 15.73200167  1305","ARG_OF_PERICENTER":"13.9024","APOAPSIS":"351.663","COUNTRY_CODE":"US","OBJECT_TYPE":"PAYLOAD","SEMIMAJOR_AXIS":"6727.895","EPOCH":"2022-11-02T22:00:00.999936","MEAN_ANOMALY":"236.4930","OBJECT_ID":"2022-119AC","DECAY_DATE":null,"PERIOD":"91.533","MEAN_MOTION":"15.73200167","GP_ID":"216792264","ECCENTRICITY":"0.00028290","BSTAR":"0.00040171000000","TLE_LINE1":"1 53912U 22119AC  22306.91667824  .00056142  00000-0  40171-3 0  9995","SITE":"AFETR","FILE":"3643025","RA_OF_ASC_NODE":"60.2249","MEAN_MOTION_DOT":"0.00056142","ELEMENT_SET_NO":"999","REV_AT_EPOCH":"130"},{"RA_OF_ASC_NODE":"60.2211","MEAN_MOTION_DOT":"0.00047140","ELEMENT_SET_NO":"999","REV_AT_EPOCH":"130","FILE":"3643025","GP_ID":"216793015","BSTAR":"0.00033814000000","ECCENTRICITY":"0.00022790","TLE_LINE1":"1 53913U 22119AD  22306.91667824  .00047140  00000-0  33814-3 0  9990","SITE":"AFETR","DECAY_DATE":null,"PERIOD":"91.532","MEAN_MOTION":"15.73217358","OBJECT_TYPE":"PAYLOAD","SEMIMAJOR_AXIS":"6727.846","EPOCH":"2022-11-02T22:00:00.999936","MEAN_ANOMALY":"228.8156","OBJECT_ID":"2022-119AD","TIME_SYSTEM":"UTC","LAUNCH_DATE":"2022-09-24","ARG_OF_PERICENTER":"23.3811","TLE_LINE2":"2 53913  53.2155  60.2211 0002279  23.3811 228.8156 15.73217358  1302","APOAPSIS":"351.244","COUNTRY_CODE":"US","REF_FRAME":"TEME","CENTER_NAME":"EARTH","CLASSIFICATION_TYPE":"U","INCLINATION":"53.2155","MEAN_MOTION_DDOT":"0.0000000000000","OBJECT_NAME":"STARLINK-5053","NORAD_CAT_ID":"53913","EPHEMERIS_TYPE":"0","MEAN_ELEMENT_THEORY":"SGP4","RCS_SIZE":"LARGE","PERIAPSIS":"348.177"},{"OBJECT_NAME":"STARLINK-5040","NORAD_CAT_ID":"53914","EPHEMERIS_TYPE":"0","MEAN_ELEMENT_THEORY":"SGP4","PERIAPSIS":"347.977","RCS_SIZE":"LARGE","REF_FRAME":"TEME","CENTER_NAME":"EARTH","CLASSIFICATION_TYPE":"U","INCLINATION":"53.2158","MEAN_MOTION_DDOT":"0.0000000000000","LAUNCH_DATE":"2022-09-24","TIME_SYSTEM":"UTC","TLE_LINE2":"2 53914  53.2158  60.2195 0002449  20.9615 231.8289 15.73247374  1303","ARG_OF_PERICENTER":"20.9615","APOAPSIS":"351.273","COUNTRY_CODE":"US","OBJECT_TYPE":"PAYLOAD","SEMIMAJOR_AXIS":"6727.760","EPOCH":"2022-11-02T22:00:00.999936","MEAN_ANOMALY":"231.8289","OBJECT_ID":"2022-119AE","DECAY_DATE":null,"PERIOD":"91.530","MEAN_MOTION":"15.73247374","GP_ID":"216792848","ECCENTRICITY":"0.00024490","BSTAR":"-0.00001929800000","TLE_LINE1":"1 53914U 22119AE  22306.91667824 -.00003336  00000-0 -19298-4 0  9993","SITE":"AFETR","FILE":"3643025","MEAN_MOTION_DOT":"-0.00003336","RA_OF_ASC_NODE":"60.2195","ELEMENT_SET_NO":"999","REV_AT_EPOCH":"130"},{"EPHEMERIS_TYPE":"0","MEAN_ELEMENT_THEORY":"SGP4","PERIAPSIS":"348.158","RCS_SIZE":"LARGE","OBJECT_NAME":"STARLINK-5017","NORAD_CAT_ID":"53915","CLASSIFICATION_TYPE":"U","INCLINATION":"53.2159","MEAN_MOTION_DDOT":"0.0000000000000","REF_FRAME":"TEME","CENTER_NAME":"EARTH","APOAPSIS":"351.054","COUNTRY_CODE":"US","LAUNCH_DATE":"2022-09-24","TIME_SYSTEM":"UTC","TLE_LINE2":"2 53915  53.2159  60.2255 0002153  21.2342 228.5870 15.73254079  1304","ARG_OF_PERICENTER":"21.2342","EPOCH":"2022-11-02T22:00:00.999936","MEAN_ANOMALY":"228.5870","OBJECT_ID":"2022-119AF","OBJECT_TYPE":"PAYLOAD","SEMIMAJOR_AXIS":"6727.741","PERIOD":"91.530","MEAN_MOTION":"15.73254079","DECAY_DATE":null,"BSTAR":"-0.00015440000000","ECCENTRICITY":"0.00021530","TLE_LINE1":"1 53915U 22119AF  22306.91667824 -.00022286  00000-0 -15440-3 0  9993","SITE":"AFETR","GP_ID":"216793181","FILE":"3643025","ELEMENT_SET_NO":"999","REV_AT_EPOCH":"130","MEAN_MOTION_DOT":"-0.00022286","RA_OF_ASC_NODE":"60.2255"},{"MEAN_MOTION":"15.73267127","PERIOD":"91.529","DECAY_DATE":null,"TLE_LINE1":"1 53916U 22119AG  22306.91667824 -.00080595  00000-0 -57365-3 0  9993","BSTAR":"-0.00057365000000","ECCENTRICITY":"0.00016870","SITE":"AFETR","GP_ID":"216792682","FILE":"3643025","ELEMENT_SET_NO":"999","REV_AT_EPOCH":"130","RA_OF_ASC_NODE":"60.1300","MEAN_MOTION_DOT":"-0.00080595","MEAN_ELEMENT_THEORY":"SGP4","EPHEMERIS_TYPE":"0","RCS_SIZE":"LARGE","PERIAPSIS":"348.434","OBJECT_NAME":"STARLINK-5051","NORAD_CAT_ID":"53916","MEAN_MOTION_DDOT":"0.0000000000000","INCLINATION":"53.2183","CLASSIFICATION_TYPE":"U","CENTER_NAME":"EARTH","REF_FRAME":"TEME","COUNTRY_CODE":"US","APOAPSIS":"350.704","TIME_SYSTEM":"UTC","LAUNCH_DATE":"2022-09-24","ARG_OF_PERICENTER":"30.8986","TLE_LINE2":"2 53916  53.2183  60.1300 0001687  30.8986 272.9540 15.73267127  1308","EPOCH":"2022-11-02T22:00:00.999936","OBJECT_ID":"2022-119AG","MEAN_ANOMALY":"272.9540","OBJECT_TYPE":"PAYLOAD","SEMIMAJOR_AXIS":"6727.704"},{"DECAY_DATE":null,"PERIOD":"91.530","MEAN_MOTION":"15.73262288","GP_ID":"216793266","SITE":"AFETR","ECCENTRICITY":"0.00023930","BSTAR":"-0.00046592000000","TLE_LINE1":"1 53917U 22119AH  22306.91667824 -.00065686  00000-0 -46592-3 0  9998","FILE":"3643025","MEAN_MOTION_DOT":"-0.00065686","RA_OF_ASC_NODE":"60.2221","REV_AT_EPOCH":"130","ELEMENT_SET_NO":"999","NORAD_CAT_ID":"53917","OBJECT_NAME":"STARLINK-5036","PERIAPSIS":"347.973","RCS_SIZE":"LARGE","EPHEMERIS_TYPE":"0","MEAN_ELEMENT_THEORY":"SGP4","REF_FRAME":"TEME","CENTER_NAME":"EARTH","CLASSIFICATION_TYPE":"U","INCLINATION":"53.2161","MEAN_MOTION_DDOT":"0.0000000000000","TLE_LINE2":"2 53917  53.2161  60.2221 0002393  19.9155 231.7010 15.73262288  1307","ARG_OF_PERICENTER":"19.9155","LAUNCH_DATE":"2022-09-24","TIME_SYSTEM":"UTC","APOAPSIS":"351.193","COUNTRY_CODE":"US","SEMIMAJOR_AXIS":"6727.718","OBJECT_TYPE":"PAYLOAD","MEAN_ANOMALY":"231.7010","OBJECT_ID":"2022-119AH","EPOCH":"2022-11-02T22:00:00.999936"},{"PERIOD":"91.530","MEAN_MOTION":"15.73254168","DECAY_DATE":null,"ECCENTRICITY":"0.00022290","BSTAR":"-0.00037209000000","TLE_LINE1":"1 53918U 22119AJ  22306.91667824 -.00052643  00000-0 -37209-3 0  9993","SITE":"AFETR","GP_ID":"216792431","FILE":"3643025","ELEMENT_SET_NO":"999","REV_AT_EPOCH":"130","RA_OF_ASC_NODE":"60.2169","MEAN_MOTION_DOT":"-0.00052643","EPHEMERIS_TYPE":"0","MEAN_ELEMENT_THEORY":"SGP4","RCS_SIZE":"LARGE","PERIAPSIS":"348.106","OBJECT_NAME":"STARLINK-5012","NORAD_CAT_ID":"53918","CLASSIFICATION_TYPE":"U","MEAN_MOTION_DDOT":"0.0000000000000","INCLINATION":"53.2159","REF_FRAME":"TEME","CENTER_NAME":"EARTH","APOAPSIS":"351.105","COUNTRY_CODE":"US","LAUNCH_DATE":"2022-09-24","TIME_SYSTEM":"UTC","TLE_LINE2":"2 53918  53.2159  60.2169 0002229  23.1026 230.9168 15.73254168  1301","ARG_OF_PERICENTER":"23.1026","EPOCH":"2022-11-02T22:00:00.999936","MEAN_ANOMALY":"230.9168","OBJECT_ID":"2022-119AJ","OBJECT_TYPE":"PAYLOAD","SEMIMAJOR_AXIS":"6727.741"},{"GP_ID":"216757661","TLE_LINE1":"1 53919U 22119AK  22306.91667824 -.00062175  00000-0 -44049-3 0  9995","BSTAR":"-0.00044049000000","ECCENTRICITY":"0.00025350","SITE":"AFETR","DECAY_DATE":null,"MEAN_MOTION":"15.73267151","PERIOD":"91.529","MEAN_MOTION_DOT":"-0.00062175","RA_OF_ASC_NODE":"60.2146","ELEMENT_SET_NO":"999","REV_AT_EPOCH":"656","FILE":"3642575","CENTER_NAME":"EARTH","REF_FRAME":"TEME","MEAN_MOTION_DDOT":"0.0000000000000","INCLINATION":"53.2152","CLASSIFICATION_TYPE":"U","OBJECT_NAME":"STARLINK-5023","NORAD_CAT_ID":"53919","MEAN_ELEMENT_THEORY":"SGP4","EPHEMERIS_TYPE":"0","PERIAPSIS":"347.863","RCS_SIZE":"LARGE","OBJECT_TYPE":"PAYLOAD","SEMIMAJOR_AXIS":"6727.704","EPOCH":"2022-11-02T22:00:00.999936","OBJECT_ID":"2022-119AK","MEAN_ANOMALY":"237.2319","TIME_SYSTEM":"UTC","LAUNCH_DATE":"2022-09-24","TLE_LINE2":"2 53919  53.2152  60.2146 0002535  17.3407 237.2319 15.73267151  6565","ARG_OF_PERICENTER":"17.3407","COUNTRY_CODE":"US","APOAPSIS":"351.274"},{"LAUNCH_DATE":"2022-09-24","TIME_SYSTEM":"UTC","ARG_OF_PERICENTER":"17.7319","TLE_LINE2":"2 53920  53.2153  60.2117 0002401  17.7319 239.2190 15.73221824  6560","APOAPSIS":"351.313","COUNTRY_CODE":"US","OBJECT_TYPE":"PAYLOAD","SEMIMAJOR_AXIS":"6727.833","EPOCH":"2022-11-02T22:00:00.999936","MEAN_ANOMALY":"239.2190","OBJECT_ID":"2022-119AL","OBJECT_NAME":"STARLINK-5025","NORAD_CAT_ID":"53920","EPHEMERIS_TYPE":"0","MEAN_ELEMENT_THEORY":"SGP4","PERIAPSIS":"348.083","RCS_SIZE":"LARGE","REF_FRAME":"TEME","CENTER_NAME":"EARTH","CLASSIFICATION_TYPE":"U","INCLINATION":"53.2153","MEAN_MOTION_DDOT":"0.0000000000000","FILE":"3642621","RA_OF_ASC_NODE":"60.2117","MEAN_MOTION_DOT":"0.00041092","ELEMENT_SET_NO":"999","REV_AT_EPOCH":"656","DECAY_DATE":null,"PERIOD":"91.532","MEAN_MOTION":"15.73221824","GP_ID":"216758357","ECCENTRICITY":"0.00024010","BSTAR":"0.00029547000000","TLE_LINE1":"1 53920U 22119AL  22306.91667824  .00041092  00000-0  29547-3 0  9996","SITE":"AFETR"}];
